[{"OBJECT_NAME":"KUIPER-00191","OBJECT_ID":"2025-301L","EPOCH":"2026-03-09T22:00:01.999584","MEAN_MOTION":14.8089991,"ECCENTRICITY":7.905e-5,"INCLINATION":51.9002,"RA_OF_ASC_NODE":72.1442,"ARG_OF_PERICENTER":129.7775,"MEAN_ANOMALY":22.6806,"EPHEMERIS_TYPE":0,"CLASSIFICATION_TYPE":"U","NORAD_CAT_ID":67143,"ELEMENT_SET_NO":999,"REV_AT_EPOCH":559,"BSTAR":0.0016415783,"MEAN_MOTION_DOT":0.00012607,"MEAN_MOTION_DDOT":0},{"OBJECT_NAME":"UNKNOWN","OBJECT_ID":"","EPOCH":"2026-03-09T16:30:44.564256","MEAN_MOTION":14.36564228,"ECCENTRICITY":0.0359571,"INCLINATION":65.6735,"RA_OF_ASC_NODE":282.8329,"ARG_OF_PERICENTER":31.2915,"MEAN_ANOMALY":28.2093,"EPHEMERIS_TYPE":0,"CLASSIFICATION_TYPE":"U","NORAD_CAT_ID":87764,"ELEMENT_SET_NO":999,"REV_AT_EPOCH":63160,"BSTAR":0.0015438,"MEAN_MOTION_DOT":9.503e-5,"MEAN_MOTION_DDOT":0}]
